[{"OBJECT_NAME":"OBJECT C","OBJECT_ID":"2024-085C","EPOCH":"2026-03-09T22:49:58.289376","MEAN_MOTION":15.31893958,"ECCENTRICITY":0.00283931,"INCLINATION":97.3357,"RA_OF_ASC_NODE":145.6975,"ARG_OF_PERICENTER":37.3887,"MEAN_ANOMALY":322.9323,"EPHEMERIS_TYPE":0,"CLASSIFICATION_TYPE":"U","NORAD_CAT_ID":59679,"ELEMENT_SET_NO":999,"REV_AT_EPOCH":10244,"BSTAR":0.00039740634,"MEAN_MOTION_DOT":0.0001232,"MEAN_MOTION_DDOT":0},{"OBJECT_NAME":"STARLINK-35371","OBJECT_ID":"2025-262AE","EPOCH":"2026-03-09T23:09:42.470496","MEAN_MOTION":15.27593584,"ECCENTRICITY":0.00012949,"INCLINATION":42.9974,"RA_OF_ASC_NODE":295.0305,"ARG_OF_PERICENTER":269.3165,"MEAN_ANOMALY":90.7538,"EPHEMERIS_TYPE":0,"CLASSIFICATION_TYPE":"U","NORAD_CAT_ID":66484,"ELEMENT_SET_NO":999,"REV_AT_EPOCH":1894,"BSTAR":0.00029493323,"MEAN_MOTION_DOT":7.866e-5,"MEAN_MOTION_DDOT":0}]
